OBJECT_NAME,OBJECT_ID,EPOCH,MEAN_MOTION,ECCENTRICITY,INCLINATION,RA_OF_ASC_NODE,ARG_OF_PERICENTER,MEAN_ANOMALY,EPHEMERIS_TYPE,CLASSIFICATION_TYPE,NORAD_CAT_ID,ELEMENT_SET_NO,REV_AT_EPOCH,BSTAR,MEAN_MOTION_DOT,MEAN_MOTION_DDOT
SL-8 R/B,1985-006B,2026-07-14T15:18:42.080256,14.37845125,.00192561,74.0453,27.5466,270.6498,152.4305,0,U,15483,999,17227,.49039594E-4,.122E-5,0
SL-12 R/B(2),1985-042D,2026-07-14T11:15:29.058048,14.22010809,.00373103,71.1066,179.8755,287.2413,201.8033,0,U,15772,999,13241,.11157892E-4,-.23E-6,0
SL-14 R/B,1985-069B,2026-07-14T15:11:14.305344,14.86534919,.00200159,82.5263,265.5553,129.0292,231.2710,0,U,15945,999,19169,.21407304E-4,.215E-5,0
SL-16 R/B,1985-097B,2026-07-14T12:46:49.491264,14.16612570,.00056109,71.0008,233.5079,53.0778,52.3058,0,U,16182,999,10519,.79059466E-4,.11E-5,0
SL-14 R/B,1986-006B,2026-07-14T08:56:32.139744,14.86967941,.00753984,82.5282,140.5315,211.6098,148.0581,0,U,16496,999,16803,.22433969E-4,.238E-5,0
COSMOS 1743,1986-034A,2026-07-14T07:53:54.175200,15.69551900,.00053765,82.5286,299.8198,179.1035,181.0237,0,U,16719,999,20004,.33016077E-3,.39062E-3,0
SL-14 R/B,1986-046B,2026-07-14T10:19:14.842560,14.85690227,.00234626,82.4838,320.4335,165.4878,194.7017,0,U,16792,999,14522,.25337652E-4,.245E-5,0
SL-14 R/B,1986-055B,2026-07-14T13:21:44.889984,14.85740024,.0017303,82.5202,7.3965,272.5606,152.5886,0,U,16882,999,13820,.2181692E-4,.214E-5,0
AJISAI (EGS),1986-061A,2026-07-14T14:13:48.527328,12.44516646,.00110924,50.0106,63.1234,250.3375,145.5054,0,U,16908,999,48380,-.11594482E-3,-.114E-5,0
SL-14 R/B,1987-024B,2026-07-14T11:37:56.955936,14.86231413,.0017753,82.5297,333.5917,196.1690,163.8963,0,U,17567,999,10696,.22637763E-4,.224E-5,0
COSMOS 1833,1987-027A,2026-07-14T08:41:29.940576,14.13066398,.00241937,70.9213,59.7514,10.0401,350.1199,0,U,17589,999,2821,.77478723E-4,.97E-6,0
SL-16 R/B,1987-027B,2026-07-14T14:27:57.995712,14.17173324,.00071367,71.0032,9.0544,282.2365,77.7959,0,U,17590,999,3332,.52708327E-4,.58E-6,0
SL-14 R/B,1987-038B,2026-07-14T09:50:44.097504,14.85461149,.00208101,82.5012,177.4292,104.6011,255.7514,0,U,17912,999,9804,.21728785E-4,.213E-5,0
COSMOS 1844,1987-041A,2026-07-14T13:03:24.627456,14.14580584,.00313754,70.8998,126.6031,196.2131,163.7990,0,U,17973,999,2152,.7675708E-4,.1E-5,0
SL-14 R/B,1987-055B,2026-07-14T13:36:09.935424,14.85726770,.00194535,82.4973,229.4178,317.2918,42.6785,0,U,18153,999,8877,.2060233E-4,.203E-5,0
COSMOS 1867,1987-060A,2026-07-14T14:07:30.305280,14.31518437,.00171329,65.0119,311.3189,281.9850,77.9313,0,U,18187,999,3810,.13207726E-4,-.65E-6,0
SL-14 R/B,1988-001B,2026-07-14T15:18:52.212384,14.85626591,.00181262,82.5119,75.9468,173.6024,186.5428,0,U,18749,999,6087,.20775579E-4,.205E-5,0
COSMOS 1933,1988-020A,2026-07-14T12:15:39.833280,15.18886053,.00058538,82.5141,125.3759,109.0102,251.1767,0,U,18958,999,6947,.79157168E-4,.1683E-4,0
SL-3 R/B,1988-032B,2026-07-14T14:41:32.959392,15.21028688,.00264455,97.5270,178.6309,147.6909,212.5953,0,U,19046,999,7139,.97023834E-4,.21E-4,0
SL-16 R/B,1988-039B,2026-07-14T07:39:40.669344,14.19631365,.0020675,71.0124,160.7870,150.7825,209.4462,0,U,19120,999,97635,-.10380398E-4,-.7E-6,0
COSMOS 1953,1988-050A,2026-07-14T14:46:00.721632,15.30333177,.00115951,82.5058,30.3650,41.7729,318.4394,0,U,19210,999,5718,.15228531E-3,.4509E-4,0
SL-8 R/B,1988-053B,2026-07-14T14:48:11.146752,14.38978113,.00197046,74.0459,238.4953,24.2594,93.5666,0,U,19257,999,99485,.49806324E-4,.128E-5,0
COSMOS 1975,1988-093A,2026-07-14T12:01:38.045856,15.29656711,.00125446,82.5195,350.2174,84.6047,275.6624,0,U,19573,999,3878,.13081292E-3,.38E-4,0
SL-14 R/B,1988-093B,2026-07-14T15:02:32.855424,14.85759893,.00200676,82.5316,282.8856,342.2646,137.1819,0,U,19574,999,1986,.2040783E-4,.202E-5,0
SL-16 R/B,1988-102B,2026-07-14T13:15:46.423296,14.16166708,.00143443,70.9978,244.5592,186.5254,173.5685,0,U,19650,999,94485,-.46751615E-4,-.14E-5,0
INTERCOSMOS 24,1989-080A,2026-07-14T13:47:33.008640,12.59691849,.11872015,82.6048,21.8184,358.3863,1.3531,0,U,20261,999,68277,.40208602E-4,.151E-5,0
SL-14 R/B,1989-080C,2026-07-14T10:37:12.283392,12.50578401,.12286745,82.5934,91.7959,255.0138,91.2024,0,U,20262,999,67599,.21168772E-4,.72E-6,0
DELTA 1 R/B,1989-089B,2026-07-14T12:46:35.293152,14.50747601,.00706372,97.0634,22.7145,82.0383,278.8824,0,U,20323,999,91412,.42101348E-4,.136E-5,0
ARIANE 40 R/B,1990-005H,2026-07-14T15:09:16.398720,14.39940543,.00102327,98.2946,252.3921,175.6464,184.4816,0,U,20443,999,91107,.44488461E-4,.98E-6,0
DELTA 2 R/B(1),1990-008B,2026-07-14T07:45:51.984576,15.73466303,.00594225,35.5994,53.5048,7.8673,352.2989,0,U,20453,999,94597,.46336026E-3,.75382E-3,0
