SL-8 R/B                
1 15483U 85006B   26195.63798704  .00000122  00000+0  49040-4 0  9992
2 15483  74.0453  27.5466 0019256 270.6498 152.4305 14.37845125172274
SL-12 R/B(2)            
1 15772U 85042D   26195.46908632 -.00000023  00000+0  11158-4 0  9997
2 15772  71.1066 179.8755 0037310 287.2413 201.8033 14.22010809132413
SL-14 R/B               
1 15945U 85069B   26195.63280446  .00000215  00000+0  21407-4 0  9993
2 15945  82.5263 265.5553 0020015 129.0292 231.2710 14.86534919191698
SL-16 R/B               
1 16182U 85097B   26195.53251726  .00000110  00000+0  79059-4 0  9996
2 16182  71.0008 233.5079 0005610  53.0778  52.3058 14.16612570105199
SL-14 R/B               
1 16496U 86006B   26195.37259421  .00000238  00000+0  22434-4 0  9993
2 16496  82.5282 140.5315 0075398 211.6098 148.0581 14.86967941168033
COSMOS 1743             
1 16719U 86034A   26195.32909925  .00039062  00000+0  33016-3 0  9992
2 16719  82.5286 299.8198 0005376 179.1035 181.0237 15.69551900200049
SL-14 R/B               
1 16792U 86046B   26195.43003290  .00000245  00000+0  25338-4 0  9998
2 16792  82.4838 320.4335 0023462 165.4878 194.7017 14.85690227145223
SL-14 R/B               
1 16882U 86055B   26195.55676956  .00000214  00000+0  21817-4 0  9990
2 16882  82.5202   7.3965 0017303 272.5606 152.5886 14.85740024138202
AJISAI (EGS)            
1 16908U 86061A   26195.59292277 -.00000114  00000+0 -11594-3 0  9991
2 16908  50.0106  63.1234 0011092 250.3375 145.5054 12.44516646483801
SL-14 R/B               
1 17567U 87024B   26195.48468699  .00000224  00000+0  22638-4 0  9996
2 17567  82.5297 333.5917 0017753 196.1690 163.8963 14.86231413106968
COSMOS 1833             
1 17589U 87027A   26195.36215209  .00000097  00000+0  77479-4 0  9998
2 17589  70.9213  59.7514 0024193  10.0401 350.1199 14.13066398 28212
SL-16 R/B               
1 17590U 87027B   26195.60275458  .00000058  00000+0  52708-4 0  9994
2 17590  71.0032   9.0544 0007136 282.2365  77.7959 14.17173324 33322
SL-14 R/B               
1 17912U 87038B   26195.41023261  .00000213  00000+0  21729-4 0  9998
2 17912  82.5012 177.4292 0020810 104.6011 255.7514 14.85461149 98049
COSMOS 1844             
1 17973U 87041A   26195.54403504  .00000100  00000+0  76757-4 0  9991
2 17973  70.8998 126.6031 0031375 196.2131 163.7990 14.14580584 21526
SL-14 R/B               
1 18153U 87055B   26195.56678166  .00000203  00000+0  20602-4 0  9999
2 18153  82.4973 229.4178 0019453 317.2918  42.6785 14.85726770 88778
COSMOS 1867             
1 18187U 87060A   26195.58854520 -.00000065  00000+0  13208-4 0  9995
2 18187  65.0119 311.3189 0017132 281.9850  77.9313 14.31518437 38101
SL-14 R/B               
1 18749U 88001B   26195.63810431  .00000205  00000+0  20776-4 0  9997
2 18749  82.5119  75.9468 0018126 173.6024 186.5428 14.85626591 60879
COSMOS 1933             
1 18958U 88020A   26195.51087770  .00001683  00000+0  79157-4 0  9997
2 18958  82.5141 125.3759 0005853 109.0102 251.1767 15.18886053 69470
SL-3 R/B                
1 19046U 88032B   26195.61218703  .00002100  00000+0  97024-4 0  9990
2 19046  97.5270 178.6309 0026445 147.6909 212.5953 15.21028688 71391
SL-16 R/B               
1 19120U 88039B   26195.31922071 -.00000070  00000+0 -10380-4 0  9993
2 19120  71.0124 160.7870 0020675 150.7825 209.4462 14.19631365976353
COSMOS 1953             
1 19210U 88050A   26195.61528613  .00004509  00000+0  15229-3 0  9998
2 19210  82.5058  30.3650 0011595  41.7729 318.4394 15.30333177 57187
SL-8 R/B                
1 19257U 88053B   26195.61679568  .00000128  00000+0  49806-4 0  9990
2 19257  74.0459 238.4953 0019704  24.2594  93.5666 14.38978113994851
COSMOS 1975             
1 19573U 88093A   26195.50113479  .00003800  00000+0  13081-3 0  9992
2 19573  82.5195 350.2174 0012544  84.6047 275.6624 15.29656711 38785
SL-14 R/B               
1 19574U 88093B   26195.62676916  .00000202  00000+0  20408-4 0  9991
2 19574  82.5316 282.8856 0020067 342.2646 137.1819 14.85759893 19867
SL-16 R/B               
1 19650U 88102B   26195.55262064 -.00000140  00000+0 -46752-4 0  9997
2 19650  70.9978 244.5592 0014344 186.5254 173.5685 14.16166708944856
INTERCOSMOS 24          
1 20261U 89080A   26195.57468760  .00000151  00000+0  40209-4 0  9997
2 20261  82.6048  21.8184 1187201 358.3863   1.3531 12.59691849682778
SL-14 R/B               
1 20262U 89080C   26195.44250328  .00000072  00000+0  21169-4 0  9999
2 20262  82.5934  91.7959 1228674 255.0138  91.2024 12.50578401675996
DELTA 1 R/B             
1 20323U 89089B   26195.53235293  .00000136  00000+0  42101-4 0  9990
2 20323  97.0634  22.7145 0070637  82.0383 278.8824 14.50747601914120
ARIANE 40 R/B           
1 20443U 90005H   26195.63143980  .00000098  00000+0  44488-4 0  9992
2 20443  98.2946 252.3921 0010232 175.6464 184.4816 14.39940543911070
DELTA 2 R/B(1)          
1 20453U 90008B   26195.32351834  .00075382  00000+0  46336-3 0  9992
2 20453  35.5994  53.5048 0059422   7.8673 352.2989 15.73466303945979
